[{"OBJECT_NAME":"STARLINK-32483","OBJECT_ID":"2024-202M","EPOCH":"2026-03-09T12:33:50.280768","MEAN_MOTION":15.27569381,"ECCENTRICITY":0.00013231,"INCLINATION":43.0034,"RA_OF_ASC_NODE":238.8052,"ARG_OF_PERICENTER":272.4638,"MEAN_ANOMALY":87.6062,"EPHEMERIS_TYPE":0,"CLASSIFICATION_TYPE":"U","NORAD_CAT_ID":61856,"ELEMENT_SET_NO":999,"REV_AT_EPOCH":7531,"BSTAR":2.5849135e-5,"MEAN_MOTION_DOT":4.49e-6,"MEAN_MOTION_DDOT":0},{"OBJECT_NAME":"FLOCK 4G-6","OBJECT_ID":"2025-009BD","EPOCH":"2026-03-09T17:03:16.973568","MEAN_MOTION":15.27432125,"ECCENTRICITY":0.00023795,"INCLINATION":97.398,"RA_OF_ASC_NODE":150.7943,"ARG_OF_PERICENTER":348.2637,"MEAN_ANOMALY":11.8546,"EPHEMERIS_TYPE":0,"CLASSIFICATION_TYPE":"U","NORAD_CAT_ID":62660,"ELEMENT_SET_NO":999,"REV_AT_EPOCH":12130,"BSTAR":0.00045909501,"MEAN_MOTION_DOT":0.00012261,"MEAN_MOTION_DDOT":0}]
